CCSDS_OMM_VERS = 2.0
CREATION_DATE  = 
ORIGINATOR     = 

OBJECT_NAME    = STARLINK-36957
OBJECT_ID      = 2026-039D
CENTER_NAME    = EARTH
REF_FRAME      = TEME
TIME_SYSTEM    = UTC
MEAN_ELEMENT_THEORY = SGP/SGP4

EPOCH          = 2026-03-18T14:00:01.000224
MEAN_MOTION    = 15.65186133
ECCENTRICITY   = .00014519
INCLINATION    = 42.9999
RA_OF_ASC_NODE = 0.7034
ARG_OF_PERICENTER = 247.9188
MEAN_ANOMALY   = 1.9461

EPHEMERIS_TYPE = 0
CLASSIFICATION_TYPE = U
NORAD_CAT_ID   = 67989
ELEMENT_SET_NO = 999
REV_AT_EPOCH   = 430
BSTAR          = -.21171548E-1
MEAN_MOTION_DOT = -.1907587E-1
MEAN_MOTION_DDOT = 0

CCSDS_OMM_VERS = 2.0
CREATION_DATE  = 
ORIGINATOR     = 

OBJECT_NAME    = STARLINK-36951
OBJECT_ID      = 2026-039E
CENTER_NAME    = EARTH
REF_FRAME      = TEME
TIME_SYSTEM    = UTC
MEAN_ELEMENT_THEORY = SGP/SGP4

EPOCH          = 2026-03-18T14:00:01.000224
MEAN_MOTION    = 15.61181233
ECCENTRICITY   = .00013085
INCLINATION    = 42.9999
RA_OF_ASC_NODE = 0.8548
ARG_OF_PERICENTER = 263.6821
MEAN_ANOMALY   = 285.5216

EPHEMERIS_TYPE = 0
CLASSIFICATION_TYPE = U
NORAD_CAT_ID   = 67990
ELEMENT_SET_NO = 999
REV_AT_EPOCH   = 430
BSTAR          = -.24738265E-1
MEAN_MOTION_DOT = -.1901684E-1
MEAN_MOTION_DDOT = 0

CCSDS_OMM_VERS = 2.0
CREATION_DATE  = 
ORIGINATOR     = 

OBJECT_NAME    = STARLINK-36941
OBJECT_ID      = 2026-039F
CENTER_NAME    = EARTH
REF_FRAME      = TEME
TIME_SYSTEM    = UTC
MEAN_ELEMENT_THEORY = SGP/SGP4

EPOCH          = 2026-03-18T14:00:01.000224
MEAN_MOTION    = 15.50542121
ECCENTRICITY   = .00013279
INCLINATION    = 43.0002
RA_OF_ASC_NODE = 1.5944
ARG_OF_PERICENTER = 251.9022
MEAN_ANOMALY   = 357.9296

EPHEMERIS_TYPE = 0
CLASSIFICATION_TYPE = U
NORAD_CAT_ID   = 67991
ELEMENT_SET_NO = 999
REV_AT_EPOCH   = 430
BSTAR          = .8736912E-3
MEAN_MOTION_DOT = .51182E-3
MEAN_MOTION_DDOT = 0

CCSDS_OMM_VERS = 2.0
CREATION_DATE  = 
ORIGINATOR     = 

OBJECT_NAME    = STARLINK-36950
OBJECT_ID      = 2026-039G
CENTER_NAME    = EARTH
REF_FRAME      = TEME
TIME_SYSTEM    = UTC
MEAN_ELEMENT_THEORY = SGP/SGP4

EPOCH          = 2026-03-18T14:00:01.000224
MEAN_MOTION    = 15.53659326
ECCENTRICITY   = .00018628
INCLINATION    = 42.9995
RA_OF_ASC_NODE = 1.2275
ARG_OF_PERICENTER = 257.1439
MEAN_ANOMALY   = 141.3624

EPHEMERIS_TYPE = 0
CLASSIFICATION_TYPE = U
NORAD_CAT_ID   = 67992
ELEMENT_SET_NO = 999
REV_AT_EPOCH   = 430
BSTAR          = -.32310149E-1
MEAN_MOTION_DOT = -.187164E-1
MEAN_MOTION_DDOT = 0

CCSDS_OMM_VERS = 2.0
CREATION_DATE  = 
ORIGINATOR     = 

OBJECT_NAME    = STARLINK-36975
OBJECT_ID      = 2026-039H
CENTER_NAME    = EARTH
REF_FRAME      = TEME
TIME_SYSTEM    = UTC
MEAN_ELEMENT_THEORY = SGP/SGP4

EPOCH          = 2026-03-18T14:00:01.000224
MEAN_MOTION    = 15.54952002
ECCENTRICITY   = .00017561
INCLINATION    = 43.0001
RA_OF_ASC_NODE = 1.1400
ARG_OF_PERICENTER = 262.4682
MEAN_ANOMALY   = 171.1402

EPHEMERIS_TYPE = 0
CLASSIFICATION_TYPE = U
NORAD_CAT_ID   = 67993
ELEMENT_SET_NO = 999
REV_AT_EPOCH   = 430
BSTAR          = -.31221295E-1
MEAN_MOTION_DOT = -.1894092E-1
MEAN_MOTION_DDOT = 0

CCSDS_OMM_VERS = 2.0
CREATION_DATE  = 
ORIGINATOR     = 

OBJECT_NAME    = STARLINK-36993
OBJECT_ID      = 2026-039J
CENTER_NAME    = EARTH
REF_FRAME      = TEME
TIME_SYSTEM    = UTC
MEAN_ELEMENT_THEORY = SGP/SGP4

EPOCH          = 2026-03-18T14:00:01.000224
MEAN_MOTION    = 15.65393709
ECCENTRICITY   = .00016353
INCLINATION    = 43.0001
RA_OF_ASC_NODE = 0.6413
ARG_OF_PERICENTER = 252.4653
MEAN_ANOMALY   = 21.6690

EPHEMERIS_TYPE = 0
CLASSIFICATION_TYPE = U
NORAD_CAT_ID   = 67994
ELEMENT_SET_NO = 999
REV_AT_EPOCH   = 430
BSTAR          = -.21117412E-1
MEAN_MOTION_DOT = -.191759E-1
MEAN_MOTION_DDOT = 0

CCSDS_OMM_VERS = 2.0
CREATION_DATE  = 
ORIGINATOR     = 

OBJECT_NAME    = STARLINK-36968
OBJECT_ID      = 2026-039K
CENTER_NAME    = EARTH
REF_FRAME      = TEME
TIME_SYSTEM    = UTC
MEAN_ELEMENT_THEORY = SGP/SGP4

EPOCH          = 2026-03-18T14:00:01.000224
MEAN_MOTION    = 15.51018309
ECCENTRICITY   = .00014357
INCLINATION    = 43.0001
RA_OF_ASC_NODE = 1.3200
ARG_OF_PERICENTER = 243.9141
MEAN_ANOMALY   = 116.6247

EPHEMERIS_TYPE = 0
CLASSIFICATION_TYPE = U
NORAD_CAT_ID   = 67995
ELEMENT_SET_NO = 999
REV_AT_EPOCH   = 430
BSTAR          = -.13108558E-1
MEAN_MOTION_DOT = -.723152E-2
MEAN_MOTION_DDOT = 0

CCSDS_OMM_VERS = 2.0
CREATION_DATE  = 
ORIGINATOR     = 

OBJECT_NAME    = STARLINK-36979
OBJECT_ID      = 2026-039L
CENTER_NAME    = EARTH
REF_FRAME      = TEME
TIME_SYSTEM    = UTC
MEAN_ELEMENT_THEORY = SGP/SGP4

EPOCH          = 2026-03-18T14:00:01.000224
MEAN_MOTION    = 15.66988960
ECCENTRICITY   = .00016995
INCLINATION    = 43.0003
RA_OF_ASC_NODE = 0.5773
ARG_OF_PERICENTER = 253.8431
MEAN_ANOMALY   = 46.1602

EPHEMERIS_TYPE = 0
CLASSIFICATION_TYPE = U
NORAD_CAT_ID   = 67996
ELEMENT_SET_NO = 999
REV_AT_EPOCH   = 430
BSTAR          = -.20080955E-1
MEAN_MOTION_DOT = -.194272E-1
MEAN_MOTION_DDOT = 0

CCSDS_OMM_VERS = 2.0
CREATION_DATE  = 
ORIGINATOR     = 

OBJECT_NAME    = STARLINK-36994
OBJECT_ID      = 2026-039M
CENTER_NAME    = EARTH
REF_FRAME      = TEME
TIME_SYSTEM    = UTC
MEAN_ELEMENT_THEORY = SGP/SGP4

EPOCH          = 2026-03-18T14:00:01.000224
MEAN_MOTION    = 15.61058268
ECCENTRICITY   = .00011831
INCLINATION    = 43.0003
RA_OF_ASC_NODE = 0.7730
ARG_OF_PERICENTER = 255.0118
MEAN_ANOMALY   = 326.1116

EPHEMERIS_TYPE = 0
CLASSIFICATION_TYPE = U
NORAD_CAT_ID   = 67997
ELEMENT_SET_NO = 999
REV_AT_EPOCH   = 430
BSTAR          = -.24930129E-1
MEAN_MOTION_DOT = -.1906516E-1
MEAN_MOTION_DDOT = 0

CCSDS_OMM_VERS = 2.0
CREATION_DATE  = 
ORIGINATOR     = 

OBJECT_NAME    = STARLINK-36988
OBJECT_ID      = 2026-039N
CENTER_NAME    = EARTH
REF_FRAME      = TEME
TIME_SYSTEM    = UTC
MEAN_ELEMENT_THEORY = SGP/SGP4

EPOCH          = 2026-03-18T14:00:01.000224
MEAN_MOTION    = 15.62089137
ECCENTRICITY   = .00013376
INCLINATION    = 43.0007
RA_OF_ASC_NODE = 0.7395
ARG_OF_PERICENTER = 254.6964
MEAN_ANOMALY   = 340.3730

EPHEMERIS_TYPE = 0
CLASSIFICATION_TYPE = U
NORAD_CAT_ID   = 67998
ELEMENT_SET_NO = 999
REV_AT_EPOCH   = 430
BSTAR          = -.23827339E-1
MEAN_MOTION_DOT = -.1898504E-1
MEAN_MOTION_DDOT = 0

CCSDS_OMM_VERS = 2.0
CREATION_DATE  = 
ORIGINATOR     = 

OBJECT_NAME    = STARLINK-36926
OBJECT_ID      = 2026-039P
CENTER_NAME    = EARTH
REF_FRAME      = TEME
TIME_SYSTEM    = UTC
MEAN_ELEMENT_THEORY = SGP/SGP4

EPOCH          = 2026-03-18T14:00:01.000224
MEAN_MOTION    = 15.61243544
ECCENTRICITY   = .00012224
INCLINATION    = 43.0003
RA_OF_ASC_NODE = 0.7541
ARG_OF_PERICENTER = 253.3944
MEAN_ANOMALY   = 335.3565

EPHEMERIS_TYPE = 0
CLASSIFICATION_TYPE = U
NORAD_CAT_ID   = 67999
ELEMENT_SET_NO = 999
REV_AT_EPOCH   = 430
BSTAR          = -.24681133E-1
MEAN_MOTION_DOT = -.1901834E-1
MEAN_MOTION_DDOT = 0

CCSDS_OMM_VERS = 2.0
CREATION_DATE  = 
ORIGINATOR     = 

OBJECT_NAME    = STARLINK-36931
OBJECT_ID      = 2026-039Q
CENTER_NAME    = EARTH
REF_FRAME      = TEME
TIME_SYSTEM    = UTC
MEAN_ELEMENT_THEORY = SGP/SGP4

EPOCH          = 2026-03-18T14:00:01.000224
MEAN_MOTION    = 15.65307369
ECCENTRICITY   = .00016911
INCLINATION    = 43.0003
RA_OF_ASC_NODE = 0.5799
ARG_OF_PERICENTER = 253.7268
MEAN_ANOMALY   = 44.7264

EPHEMERIS_TYPE = 0
CLASSIFICATION_TYPE = U
NORAD_CAT_ID   = 68000
ELEMENT_SET_NO = 999
REV_AT_EPOCH   = 430
BSTAR          = -.21351474E-1
MEAN_MOTION_DOT = -.1930431E-1
MEAN_MOTION_DDOT = 0

